IRIDIUM 136             
1 42962U 17061H   24265.54608596  .00000140  00000+0  42870-4 0  9999
2 42962  86.3920 290.0410 0002140  90.7326 269.4115 14.34214572364018
